[{"OBJECT_NAME":"STARLINK-1965","OBJECT_ID":"2021-009U","EPOCH":"2026-03-09T22:00:01.999584","MEAN_MOTION":15.82162329,"ECCENTRICITY":0.00080631,"INCLINATION":53.0138,"RA_OF_ASC_NODE":281.45,"ARG_OF_PERICENTER":151.8598,"MEAN_ANOMALY":352.2336,"EPHEMERIS_TYPE":0,"CLASSIFICATION_TYPE":"U","NORAD_CAT_ID":47566,"ELEMENT_SET_NO":999,"REV_AT_EPOCH":596,"BSTAR":0.0011319384,"MEAN_MOTION_DOT":0.00243716,"MEAN_MOTION_DDOT":0},{"OBJECT_NAME":"STARLINK-36383","OBJECT_ID":"2026-036U","EPOCH":"2026-03-09T21:18:23.646816","MEAN_MOTION":15.82126529,"ECCENTRICITY":0.00017772,"INCLINATION":42.999,"RA_OF_ASC_NODE":248.4021,"ARG_OF_PERICENTER":287.492,"MEAN_ANOMALY":72.5758,"EPHEMERIS_TYPE":0,"CLASSIFICATION_TYPE":"U","NORAD_CAT_ID":67922,"ELEMENT_SET_NO":999,"REV_AT_EPOCH":370,"BSTAR":0.0016902307,"MEAN_MOTION_DOT":0.00373062,"MEAN_MOTION_DDOT":0}]
